GLOBALSTAR M057         
1 25943U 99058A   25174.47941283 -.00000056  00000+0  33743-3 0  9995
2 25943  52.0002 330.3475 0003024  44.9788 315.1306 12.24822706167702
GLOBALSTAR M059         
1 25944U 99058B   25173.32775390 -.00000045  00000+0  51210-3 0  9990
2 25944  51.9986 193.2667 0000647 294.6871  78.6342 11.99979998574661
GLOBALSTAR M056         
1 25945U 99058C   25174.30227016 -.00000098  00000+0 -12458-3 0  9997
2 25945  51.9930 192.4324 0001167 201.2280 171.4191 12.04782071163364
GLOBALSTAR M031         
1 25946U 99058D   25174.51865108 -.00000035  00000+0  56120-3 0  9995
2 25946  51.9967  83.7926 0000810 174.0130 356.4861 12.16036488165313
GLOBALSTAR M039         
1 25961U 99062A   25174.57854980 -.00000075  00000+0  16021-3 0  9999
2 25961  51.9835 249.2516 0002317   8.3707 351.7198 12.62328791181020
GLOBALSTAR M034         
1 25962U 99062B   25174.46454375 -.00000125  00000+0 -69164-3 0  9995
2 25962  51.9896 355.0698 0014770  55.2770 324.1437 11.79446371139139
GLOBALSTAR M029         
1 25963U 99062C   25174.45676565 -.00000086  00000+0  27682-5 0  9998
2 25963  51.9814  78.2421 0002600 115.8714  55.4204 11.99897902169870
